{"type": "FeatureCollection", "features": [ {"type": "Feature", "properties": {"norad_id": 66435, "name": "STARLINK-35502", "group": "last-30-days", "lat": -42.73468396167396, "lon": 5.569809510014926, "alt_km": 417.2699720648843, "timestamp": "2025-12-03T04:52:28.419959+00:00", "meta": {"OBJECT_NAME": "STARLINK-35502", "OBJECT_ID": "2025-259P", "EPOCH": "2025-12-02T20:00:03.000384", "MEAN_MOTION": 15.50578712, "ECCENTRICITY": 0.0001522, "INCLINATION": 42.9999, "RA_OF_ASC_NODE": 105.2227, "ARG_OF_PERICENTER": 269.5022, "MEAN_ANOMALY": 88.589, "EPHEMERIS_TYPE": 0, "CLASSIFICATION_TYPE": "U", "NORAD_CAT_ID": 66435, "ELEMENT_SET_NO": 999, "REV_AT_EPOCH": 468, "BSTAR": 0.00078405, "MEAN_MOTION_DOT": 0.00045924, "MEAN_MOTION_DDOT": 0}, "tle": {"line1": "1 66435U 25259P   25336.83336806  .00045924  00000+0  78405-3 0  9993", "line2": "2 66435  42.9999 105.2227 0001522 269.5022  88.5890 15.50578712  4680"}}, "geometry": {"type": "Point", "coordinates": [5.569809510014926, -42.73468396167396]}}, {"type": "Feature", "properties": {"norad_id": 66436, "name": "STARLINK-35501", "group": "last-30-days", "lat": -42.95622587904977, "lon": 10.73408727566594, "alt_km": 417.2844811400364, "timestamp": "2025-12-03T04:52:28.419971+00:00", "meta": {"OBJECT_NAME": "STARLINK-35501", "OBJECT_ID": "2025-259Q", "EPOCH": "2025-12-02T20:00:03.000384", "MEAN_MOTION": 15.50543964, "ECCENTRICITY": 0.0001495, "INCLINATION": 43, "RA_OF_ASC_NODE": 105.2122, "ARG_OF_PERICENTER": 268.5276, "MEAN_ANOMALY": 93.3901, "EPHEMERIS_TYPE": 0, "CLASSIFICATION_TYPE": "U", "NORAD_CAT_ID": 66436, "ELEMENT_SET_NO": 999, "REV_AT_EPOCH": 468, "BSTAR": 0.0016321, "MEAN_MOTION_DOT": 0.00096472, "MEAN_MOTION_DDOT": 0}, "tle": {"line1": "1 66436U 25259Q   25336.83336806  .00096472  00000+0  16321-2 0  9996", "line2": "2 66436  43.0000 105.2122 0001495 268.5276  93.3901 15.50543964  4687"}}, "geometry": {"type": "Point", "coordinates": [10.73408727566594, -42.95622587904977]}}, {"type": "Feature", "properties": {"norad_id": 66437, "name": "STARLINK-35474", "group": "last-30-days", "lat": -42.97909823267705, "lon": 13.330136769876054, "alt_km": 417.3308398573554, "timestamp": "2025-12-03T04:52:28.419984+00:00", "meta": {"OBJECT_NAME": "STARLINK-35474", "OBJECT_ID": "2025-259R", "EPOCH": "2025-12-02T20:00:03.000384", "MEAN_MOTION": 15.50555803, "ECCENTRICITY": 0.0001485, "INCLINATION": 42.9999, "RA_OF_ASC_NODE": 105.2067, "ARG_OF_PERICENTER": 270.3637, "MEAN_ANOMALY": 93.4618, "EPHEMERIS_TYPE": 0, "CLASSIFICATION_TYPE": "U", "NORAD_CAT_ID": 66437, "ELEMENT_SET_NO": 999, "REV_AT_EPOCH": 468, "BSTAR": 0.0010481, "MEAN_MOTION_DOT": 0.00061578, "MEAN_MOTION_DDOT": 0}, "tle": {"line1": "1 66437U 25259R   25336.83336806  .00061578  00000+0  10481-2 0  9997", "line2": "2 66437  42.9999 105.2067 0001485 270.3637  93.4618 15.50555803  4683"}}, "geometry": {"type": "Point", "coordinates": [13.330136769876054, -42.97909823267705]}}, {"type": "Feature", "properties": {"norad_id": 66438, "name": "STARLINK-34681", "group": "last-30-days", "lat": -42.94271129216838, "lon": 15.94831911677176, "alt_km": 417.2606954110197, "timestamp": "2025-12-03T04:52:28.419994+00:00", "meta": {"OBJECT_NAME": "STARLINK-34681", "OBJECT_ID": "2025-259S", "EPOCH": "2025-12-02T20:00:03.000384", "MEAN_MOTION": 15.50539448, "ECCENTRICITY": 0.0001498, "INCLINATION": 43, "RA_OF_ASC_NODE": 105.2026, "ARG_OF_PERICENTER": 267.598, "MEAN_ANOMALY": 98.1457, "EPHEMERIS_TYPE": 0, "CLASSIFICATION_TYPE": "U", "NORAD_CAT_ID": 66438, "ELEMENT_SET_NO": 999, "REV_AT_EPOCH": 457, "BSTAR": 0.0019025, "MEAN_MOTION_DOT": 0.00112733, "MEAN_MOTION_DDOT": 0}, "tle": {"line1": "1 66438U 25259S   25336.83336806  .00112733  00000+0  19025-2 0  9991", "line2": "2 66438  43.0000 105.2026 0001498 267.5980  98.1457 15.50539448  4575"}}, "geometry": {"type": "Point", "coordinates": [15.94831911677176, -42.94271129216838]}}, {"type": "Feature", "properties": {"norad_id": 66439, "name": "STARLINK-35327", "group": "last-30-days", "lat": -42.87575025492881, "lon": 8.174669278274594, "alt_km": 417.3627335212859, "timestamp": "2025-12-03T04:52:28.420004+00:00", "meta": {"OBJECT_NAME": "STARLINK-35327", "OBJECT_ID": "2025-259T", "EPOCH": "2025-12-02T20:00:03.000384", "MEAN_MOTION": 15.50572547, "ECCENTRICITY": 0.0001378, "INCLINATION": 43, "RA_OF_ASC_NODE": 105.2189, "ARG_OF_PERICENTER": 269.7161, "MEAN_ANOMALY": 90.2991, "EPHEMERIS_TYPE": 0, "CLASSIFICATION_TYPE": "U", "NORAD_CAT_ID": 66439, "ELEMENT_SET_NO": 999, "REV_AT_EPOCH": 468, "BSTAR": 0.00097932, "MEAN_MOTION_DOT": 0.0005752, "MEAN_MOTION_DDOT": 0}, "tle": {"line1": "1 66439U 25259T   25336.83336806  .00057520  00000+0  97932-3 0  9998", "line2": "2 66439  43.0000 105.2189 0001378 269.7161  90.2991 15.50572547  4683"}}, "geometry": {"type": "Point", "coordinates": [8.174669278274594, -42.87575025492881]}}, {"type": "Feature", "properties": {"norad_id": 66440, "name": "STARLINK-35405", "group": "last-30-days", "lat": -42.84510100339155, "lon": 18.583870230449776, "alt_km": 417.3238253950858, "timestamp": "2025-12-03T04:52:28.420014+00:00", "meta": {"OBJECT_NAME": "STARLINK-35405", "OBJECT_ID": "2025-259U", "EPOCH": "2025-12-02T20:00:03.000384", "MEAN_MOTION": 15.50596472, "ECCENTRICITY": 0.0001497, "INCLINATION": 42.9997, "RA_OF_ASC_NODE": 105.1992, "ARG_OF_PERICENTER": 269.3916, "MEAN_ANOMALY": 98.2683, "EPHEMERIS_TYPE": 0, "CLASSIFICATION_TYPE": "U", "NORAD_CAT_ID": 66440, "ELEMENT_SET_NO": 999, "REV_AT_EPOCH": 468, "BSTAR": 4.8409e-05, "MEAN_MOTION_DOT": 2.501e-05, "MEAN_MOTION_DDOT": 0}, "tle": {"line1": "1 66440U 25259U   25336.83336806  .00002501  00000+0  48409-4 0  9995", "line2": "2 66440  42.9997 105.1992 0001497 269.3916  98.2683 15.50596472  4684"}}, "geometry": {"type": "Point", "coordinates": [18.583870230449776, -42.84510100339155]}}, {"type": "Feature", "properties": {"norad_id": 66441, "name": "STARLINK-35426", "group": "last-30-days", "lat": -42.69156115725103, "lon": 21.1514173660499, "alt_km": 417.3842920338684, "timestamp": "2025-12-03T04:52:28.420023+00:00", "meta": {"OBJECT_NAME": "STARLINK-35426", "OBJECT_ID": "2025-259V", "EPOCH": "2025-12-02T20:00:03.000384", "MEAN_MOTION": 15.50558462, "ECCENTRICITY": 0.0001397, "INCLINATION": 43, "RA_OF_ASC_NODE": 105.1924, "ARG_OF_PERICENTER": 267.5095, "MEAN_ANOMALY": 102.0723, "EPHEMERIS_TYPE": 0, "CLASSIFICATION_TYPE": "U", "NORAD_CAT_ID": 66441, "ELEMENT_SET_NO": 999, "REV_AT_EPOCH": 468, "BSTAR": 0.00097878, "MEAN_MOTION_DOT": 0.00057459, "MEAN_MOTION_DDOT": 0}, "tle": {"line1": "1 66441U 25259V   25336.83336806  .00057459  00000+0  97878-3 0  9991", "line2": "2 66441  43.0000 105.1924 0001397 267.5095 102.0723 15.50558462  4680"}}, "geometry": {"type": "Point", "coordinates": [21.1514173660499, -42.69156115725103]}}, {"type": "Feature", "properties": {"norad_id": 66442, "name": "STARLINK-34724", "group": "last-30-days", "lat": -42.46849305008453, "lon": 23.83320507396686, "alt_km": 417.1977380181461, "timestamp": "2025-12-03T04:52:28.420033+00:00", "meta": {"OBJECT_NAME": "STARLINK-34724", "OBJECT_ID": "2025-259W", "EPOCH": "2025-12-02T20:00:03.000384", "MEAN_MOTION": 15.50539063, "ECCENTRICITY": 0.0001837, "INCLINATION": 43, "RA_OF_ASC_NODE": 105.1889, "ARG_OF_PERICENTER": 278.6393, "MEAN_ANOMALY": 92.9796, "EPHEMERIS_TYPE": 0, "CLASSIFICATION_TYPE": "U", "NORAD_CAT_ID": 66442, "ELEMENT_SET_NO": 999, "REV_AT_EPOCH": 468, "BSTAR": 0.00044001, "MEAN_MOTION_DOT": 0.00025519, "MEAN_MOTION_DDOT": 0}, "tle": {"line1": "1 66442U 25259W   25336.83336806  .00025519  00000+0  44001-3 0  9994", "line2": "2 66442  43.0000 105.1889 0001837 278.6393  92.9796 15.50539063  4687"}}, "geometry": {"type": "Point", "coordinates": [23.83320507396686, -42.46849305008453]}}, {"type": "Feature", "properties": {"norad_id": 66443, "name": "STARLINK-35219", "group": "last-30-days", "lat": -42.194761181690964, "lon": 26.39592086126877, "alt_km": 417.22520450968295, "timestamp": "2025-12-03T04:52:28.420043+00:00", "meta": {"OBJECT_NAME": "STARLINK-35219", "OBJECT_ID": "2025-259X", "EPOCH": "2025-12-02T20:00:03.000384", "MEAN_MOTION": 15.50569362, "ECCENTRICITY": 0.0001773, "INCLINATION": 43.0001, "RA_OF_ASC_NODE": 105.1844, "ARG_OF_PERICENTER": 276.4723, "MEAN_ANOMALY": 97.0448, "EPHEMERIS_TYPE": 0, "CLASSIFICATION_TYPE": "U", "NORAD_CAT_ID": 66443, "ELEMENT_SET_NO": 999, "REV_AT_EPOCH": 458, "BSTAR": -0.00024026, "MEAN_MOTION_DOT": -0.00014406, "MEAN_MOTION_DDOT": 0}, "tle": {"line1": "1 66443U 25259X   25336.83336806 -.00014406  00000+0 -24026-3 0  9995", "line2": "2 66443  43.0001 105.1844 0001773 276.4723  97.0448 15.50569362  4586"}}, "geometry": {"type": "Point", "coordinates": [26.39592086126877, -42.194761181690964]}}, {"type": "Feature", "properties": {"norad_id": 66444, "name": "STARLINK-35360", "group": "last-30-days", "lat": -41.059307974100186, "lon": 33.80813048991309, "alt_km": 417.2061128551086, "timestamp": "2025-12-03T04:52:28.420054+00:00", "meta": {"OBJECT_NAME": "STARLINK-35360", "OBJECT_ID": "2025-259Y", "EPOCH": "2025-12-02T20:00:03.000384", "MEAN_MOTION": 15.50548863, "ECCENTRICITY": 0.0001581, "INCLINATION": 43.0001, "RA_OF_ASC_NODE": 105.1691, "ARG_OF_PERICENTER": 261.5299, "MEAN_ANOMALY": 117.6277, "EPHEMERIS_TYPE": 0, "CLASSIFICATION_TYPE": "U", "NORAD_CAT_ID": 66444, "ELEMENT_SET_NO": 999, "REV_AT_EPOCH": 468, "BSTAR": 0.0016439, "MEAN_MOTION_DOT": 0.000972, "MEAN_MOTION_DDOT": 0}, "tle": {"line1": "1 66444U 25259Y   25336.83336806  .00097200  00000+0  16439-2 0  9995", "line2": "2 66444  43.0001 105.1691 0001581 261.5299 117.6277 15.50548863  4680"}}, "geometry": {"type": "Point", "coordinates": [33.80813048991309, -41.059307974100186]}}]}